STARLINK-1281
1 15370C 20019L   21326.15070488 -.00021258  00000-0 -14246-2 0  3261
2 15370  53.0536   8.0588 0001269  67.7960 207.2780 15.06413153    11
